PANDORA
1 67395U 80229J   26069.97578704  .00000000  00000-0  37770-3 0    01
2 67395  97.8023  70.1765 0006786  91.7411 189.9361 14.87863192    03
